{
    "week": 293,
    "satellites": [
        {
            "Name": "COSMOS 2485 (747)",
            "Line1": "1 39155U 13019A   24327.82456899  .00000024  00000+0  00000+0 0  9990",
            "Line2": "2 39155  65.1168  92.8262 0023478 227.7486 132.0419  2.13104425 90103",
            "SatelliteNumber": "39155",
            "Classification": "U",
            "LaunchYear": "13",
            "LaunchNumber": "019",
            "PieceOfLaunch": "A",
            "EpochYear": "24",
            "EpochDay": 327.82456899,
            "FirstDerivativeMeanMotion": 2.4e-07,
            "SecondDerivativeMeanMotion": "00000+0",
            "BSTAR": "00000+0",
            "SetNumber": "999",
            "Inclination": 65.1168,
            "RAAN": 92.8262,
            "Eccentricity": 0.0023478,
            "ArgumentOfPerigee": 227.7486,
            "MeanAnomaly": 132.0419,
            "MeanMotion": 2.13104425,
            "RevolutionNumber": "9010"
        },
        {
            "Name": "COSMOS 2492 (754)",
            "Line1": "1 39620U 14012A   24327.31056252 -.00000047  00000+0  00000+0 0  9990",
            "Line2": "2 39620  65.6058 333.3043 0014317 310.0108  49.8935  2.13103246 83056",
            "SatelliteNumber": "39620",
            "Classification": "U",
            "LaunchYear": "14",
            "LaunchNumber": "012",
            "PieceOfLaunch": "A",
            "EpochYear": "24",
            "EpochDay": 327.31056252,
            "FirstDerivativeMeanMotion": -4.7e-07,
            "SecondDerivativeMeanMotion": "00000+0",
            "BSTAR": "00000+0",
            "SetNumber": "999",
            "Inclination": 65.6058,
            "RAAN": 333.3043,
            "Eccentricity": 0.0014317,
            "ArgumentOfPerigee": 310.0108,
            "MeanAnomaly": 49.8935,
            "MeanMotion": 2.13103246,
            "RevolutionNumber": "8305"
        },
        {
            "Name": "COSMOS 2500 (755)",
            "Line1": "1 40001U 14032A   24326.54934001 -.00000050  00000+0  00000+0 0  9992",
            "Line2": "2 40001  65.5429 333.1226 0008607 220.2196 139.7455  2.13106002 81256",
            "SatelliteNumber": "40001",
            "Classification": "U",
            "LaunchYear": "14",
            "LaunchNumber": "032",
            "PieceOfLaunch": "A",
            "EpochYear": "24",
            "EpochDay": 326.54934001,
            "FirstDerivativeMeanMotion": -5e-07,
            "SecondDerivativeMeanMotion": "00000+0",
            "BSTAR": "00000+0",
            "SetNumber": "999",
            "Inclination": 65.5429,
            "RAAN": 333.1226,
            "Eccentricity": 0.0008607,
            "ArgumentOfPerigee": 220.2196,
            "MeanAnomaly": 139.7455,
            "MeanMotion": 2.13106002,
            "RevolutionNumber": "8125"
        },
        {
            "Name": "COSMOS 2501 (702K)",
            "Line1": "1 40315U 14075A   24327.27365202 -.00000004  00000+0  00000+0 0  9998",
            "Line2": "2 40315  63.6160 210.1860 0019334 205.6432 154.3349  2.13101424 77660",
            "SatelliteNumber": "40315",
            "Classification": "U",
            "LaunchYear": "14",
            "LaunchNumber": "075",
            "PieceOfLaunch": "A",
            "EpochYear": "24",
            "EpochDay": 327.27365202,
            "FirstDerivativeMeanMotion": -4e-08,
            "SecondDerivativeMeanMotion": "00000+0",
            "BSTAR": "00000+0",
            "SetNumber": "999",
            "Inclination": 63.616,
            "RAAN": 210.186,
            "Eccentricity": 0.0019334,
            "ArgumentOfPerigee": 205.6432,
            "MeanAnomaly": 154.3349,
            "MeanMotion": 2.13101424,
            "RevolutionNumber": "7766"
        },
        {
            "Name": "COSMOS 2514 (751)",
            "Line1": "1 41330U 16008A   24327.25653061 -.00000048  00000+0  00000+0 0  9993",
            "Line2": "2 41330  65.3361 332.5681 0012675 221.3179 138.6150  2.13102713 68436",
            "SatelliteNumber": "41330",
            "Classification": "U",
            "LaunchYear": "16",
            "LaunchNumber": "008",
            "PieceOfLaunch": "A",
            "EpochYear": "24",
            "EpochDay": 327.25653061,
            "FirstDerivativeMeanMotion": -4.8e-07,
            "SecondDerivativeMeanMotion": "00000+0",
            "BSTAR": "00000+0",
            "SetNumber": "999",
            "Inclination": 65.3361,
            "RAAN": 332.5681,
            "Eccentricity": 0.0012675,
            "ArgumentOfPerigee": 221.3179,
            "MeanAnomaly": 138.615,
            "MeanMotion": 2.13102713,
            "RevolutionNumber": "6843"
        },
        {
            "Name": "COSMOS 2522 (752)",
            "Line1": "1 42939U 17055A   24327.09632098 -.00000005  00000+0  00000+0 0  9994",
            "Line2": "2 42939  64.0776 211.3737 0006633 233.1269 126.8860  2.13101983 55781",
            "SatelliteNumber": "42939",
            "Classification": "U",
            "LaunchYear": "17",
            "LaunchNumber": "055",
            "PieceOfLaunch": "A",
            "EpochYear": "24",
            "EpochDay": 327.09632098,
            "FirstDerivativeMeanMotion": -5e-08,
            "SecondDerivativeMeanMotion": "00000+0",
            "BSTAR": "00000+0",
            "SetNumber": "999",
            "Inclination": 64.0776,
            "RAAN": 211.3737,
            "Eccentricity": 0.0006633,
            "ArgumentOfPerigee": 233.1269,
            "MeanAnomaly": 126.886,
            "MeanMotion": 2.13101983,
            "RevolutionNumber": "5578"
        },
        {
            "Name": "COSMOS 2527 (756)",
            "Line1": "1 43508U 18053A   24327.52498674  .00000025  00000+0  00000+0 0  9995",
            "Line2": "2 43508  65.2762  93.0215 0008341 218.9743 140.9548  2.13102286 50090",
            "SatelliteNumber": "43508",
            "Classification": "U",
            "LaunchYear": "18",
            "LaunchNumber": "053",
            "PieceOfLaunch": "A",
            "EpochYear": "24",
            "EpochDay": 327.52498674,
            "FirstDerivativeMeanMotion": 2.5e-07,
            "SecondDerivativeMeanMotion": "00000+0",
            "BSTAR": "00000+0",
            "SetNumber": "999",
            "Inclination": 65.2762,
            "RAAN": 93.0215,
            "Eccentricity": 0.0008341,
            "ArgumentOfPerigee": 218.9743,
            "MeanAnomaly": 140.9548,
            "MeanMotion": 2.13102286,
            "RevolutionNumber": "5009"
        },
        {
            "Name": "COSMOS 2529 (757)",
            "Line1": "1 43687U 18086A   24327.15443339 -.00000005  00000+0  00000+0 0  9995",
            "Line2": "2 43687  64.2931 211.9269 0007880 260.7926  99.1916  2.13102027 47093",
            "SatelliteNumber": "43687",
            "Classification": "U",
            "LaunchYear": "18",
            "LaunchNumber": "086",
            "PieceOfLaunch": "A",
            "EpochYear": "24",
            "EpochDay": 327.15443339,
            "FirstDerivativeMeanMotion": -5e-08,
            "SecondDerivativeMeanMotion": "00000+0",
            "BSTAR": "00000+0",
            "SetNumber": "999",
            "Inclination": 64.2931,
            "RAAN": 211.9269,
            "Eccentricity": 0.000788,
            "ArgumentOfPerigee": 260.7926,
            "MeanAnomaly": 99.1916,
            "MeanMotion": 2.13102027,
            "RevolutionNumber": "4709"
        },
        {
            "Name": "COSMOS 2534 (758)",
            "Line1": "1 44299U 19030A   24327.68799434 -.00000005  00000+0  00000+0 0  9993",
            "Line2": "2 44299  64.3663 211.8771 0010079 286.4727 257.0733  2.13102131 42735",
            "SatelliteNumber": "44299",
            "Classification": "U",
            "LaunchYear": "19",
            "LaunchNumber": "030",
            "PieceOfLaunch": "A",
            "EpochYear": "24",
            "EpochDay": 327.68799434,
            "FirstDerivativeMeanMotion": -5e-08,
            "SecondDerivativeMeanMotion": "00000+0",
            "BSTAR": "00000+0",
            "SetNumber": "999",
            "Inclination": 64.3663,
            "RAAN": 211.8771,
            "Eccentricity": 0.0010079,
            "ArgumentOfPerigee": 286.4727,
            "MeanAnomaly": 257.0733,
            "MeanMotion": 2.13102131,
            "RevolutionNumber": "4273"
        },
        {
            "Name": "COSMOS 2544 (759)",
            "Line1": "1 44850U 19088A   24326.99991131  .00000025  00000+0  00000+0 0  9991",
            "Line2": "2 44850  65.2628  92.8731 0012665 247.8250 112.0293  2.13102043 38522",
            "SatelliteNumber": "44850",
            "Classification": "U",
            "LaunchYear": "19",
            "LaunchNumber": "088",
            "PieceOfLaunch": "A",
            "EpochYear": "24",
            "EpochDay": 326.99991131,
            "FirstDerivativeMeanMotion": 2.5e-07,
            "SecondDerivativeMeanMotion": "00000+0",
            "BSTAR": "00000+0",
            "SetNumber": "999",
            "Inclination": 65.2628,
            "RAAN": 92.8731,
            "Eccentricity": 0.0012665,
            "ArgumentOfPerigee": 247.825,
            "MeanAnomaly": 112.0293,
            "MeanMotion": 2.13102043,
            "RevolutionNumber": "3852"
        }
    ]
}